LAOSAT 1                
1 41034U 15067A   26185.96057383 -.00000330  00000+0  00000+0 0  9999
2 41034   0.0388 196.0242 0002559 222.7201 338.5303  1.00274186 39033
TELSTAR 12V             
1 41036U 15068A   26186.17961221 -.00000106  00000+0  00000+0 0  9992
2 41036   0.0148  52.9587 0002393  48.2372 231.6504  1.00271149 38803
ELEKTRO-L 2             
1 41105U 15074A   26185.93224534 -.00000107  00000+0  00000+0 0  9999
2 41105   6.7363  70.3059 0000617 256.6108 277.0927  1.00273703 38686
COSMOS 2513             
1 41121U 15075A   26186.16487042 -.00000125  00000+0  00000+0 0  9999
2 41121   0.0650 104.5757 0003336 337.6696 340.5244  1.00270860 38722
EXPRESS-AMU1            
1 41191U 15082A   26186.15611705  .00000000  00000+0  00000+0 0  9999
2 41191   0.0186  27.1910 0002466  86.3061 261.9692  1.00268150 38442
GAOFEN-4                
1 41194U 15083A   26186.02735091 -.00000322  00000+0  00000+0 0  9992
2 41194   0.4010  83.8398 0004072 115.8685 198.8758  1.00273046 38709
BELINTERSAT-1           
1 41238U 16001A   26186.15915039  .00000120  00000+0  00000+0 0  9993
2 41238   0.0120  79.5603 0001839 347.3903 324.9875  1.00270447 38412
IRNSS-1E                
1 41241U 16003A   26180.82733131 -.00000310  00000+0  00000+0 0  9990
2 41241  33.2608  59.5670 0019200 178.7998  89.1855  1.00272765 38208
EUTELSAT 9B             
1 41310U 16005A   26186.22200032  .00000075  00000+0  00000+0 0  9995
2 41310   0.0630  71.7978 0001383  10.7777 289.5544  1.00272250 38291
SES-9                   
1 41380U 16013A   26186.02787091 -.00000332  00000+0  00000+0 0  9991
2 41380   0.0180 322.0565 0002390 137.2097 302.0922  1.00270615 37610
EUTELSAT 65 WEST A      
1 41382U 16014A   26186.20735359 -.00000263  00000+0  00000+0 0  9997
2 41382   0.0783 305.4532 0002337 156.2704 190.9378  1.00273653 37701
IRNSS-1F                
1 41384U 16015A   26185.94150707  .00000169  00000+0  00000+0 0  9992
2 41384   5.3923  96.3789 0017408 183.8704  14.1155  1.00276344 37843
BEIDOU-2 IGSO-6         
1 41434U 16021A   26177.11016981 -.00000145  00000+0  00000+0 0  9995
2 41434  60.2385  37.9495 0057558 231.0163 137.2672  1.00258926 37578
IRNSS-1G                
1 41469U 16027A   26185.67558775 -.00000323  00000+0  00000+0 0  9999
2 41469   5.2377  97.0713 0005809   7.0029 191.4017  1.00278584 37353
JCSAT-2B                
1 41471U 16028A   26186.17948703 -.00000152  00000+0  00000+0 0  9993
2 41471   0.0183  34.9133 0001149  80.3584  26.5323  1.00270994 37314
THAICOM 8               
1 41552U 16031A   26186.16452375 -.00000108  00000+0  00000+0 0  9992
2 41552   0.0567  34.3065 0003459  36.4325 350.1544  1.00271795 36892
INTELSAT 31 (IS-31)     
1 41581U 16035A   26186.13015587 -.00000138  00000+0  00000+0 0  9998
2 41581   0.0394 205.6145 0000944  64.2305 325.0988  1.00273064 36868
BEIDOU-2 G7             
1 41586U 16037A   26186.31344067 -.00000340  00000+0  00000+0 0  9998
2 41586   1.7621  69.4518 0006639   4.9721  72.2341  1.00267815  7076
ABS-2A (MONGOLSAT-1)    
1 41588U 16038A   26186.09251959 -.00000071  00000+0  00000+0 0  9994
2 41588   0.0165  30.2123 0001550  23.0150 337.9082  1.00269000 36888
EUTELSAT 117 WEST B     
1 41589U 16038B   26186.19705060  .00000002  00000+0  00000+0 0  9996
2 41589   0.0092 155.1834 0000124  41.2322  40.7132  1.00271115 36844
BRISAT                  
1 41591U 16039A   26185.96490719 -.00000184  00000+0  00000+0 0  9998
2 41591   0.0152 321.9324 0002047 133.9525 324.9525  1.00270247 36782
ECHOSTAR 18             
1 41592U 16039B   26186.06554078 -.00000269  00000+0  00000+0 0  9994
2 41592   0.0187  43.4998 0001580  71.8835 129.9119  1.00271130 36806
MUOS-5                  
1 41622U 16041A   26186.12833587 -.00000101  00000+0  00000+0 0  9998
2 41622   2.1669 301.9753 0198794 260.5987  21.6048  1.00273011 37268
TIANTONG-1 1            
1 41725U 16048A   26186.02648424 -.00000306  00000+0  00000+0 0  9999
2 41725   3.8814  43.5437 0005369  52.3693 298.0362  1.00274272 36444
JCSAT-16                
1 41729U 16050A   26185.89229025  .00000000  00000+0  00000+0 0  9992
2 41729   0.0227  40.2051 0001060  75.0444 272.8357  1.00269327 36248
USA 270                 
1 41744U 16052A   26176.62624484 -.00000284  00000+0  00000+0 0  9995
2 41744   4.2178  77.0981 0000668 157.1810  56.2495  0.99500516 28218
USA 271                 
1 41745U 16052B   26176.75914149 -.00000236  00000+0  00000+0 0  9997
2 41745   4.1909  77.1447 0001955 290.7679 281.9940  0.99833204 28007
INTELSAT 36 (IS-36)     
1 41747U 16053A   26186.16235707 -.00000011  00000+0  00000+0 0  9993
2 41747   0.0097  10.0275 0002215 335.4655  64.6192  1.00270251 36136
INSAT-3DR               
1 41752U 16054A   26186.09234626 -.00000064  00000+0  00000+0 0  9999
2 41752   0.0440  89.0648 0010284 182.1354 119.1289  1.00272315 35991
GSAT-18                 
1 41793U 16060A   26186.16365708 -.00000064  00000+0  00000+0 0  9995
2 41793   0.0165  62.8815 0005704  13.0284 340.1419  1.00271445 35703
SKY MUSTER 2 (NBN1B)    
1 41794U 16060B   26185.96378051 -.00000231  00000+0  00000+0 0  9994
2 41794   0.0179 345.5402 0001630 115.6510 313.5275  1.00272024 35693
HIMAWARI-9              
1 41836U 16064A   26186.18169565 -.00000261  00000+0  00000+0 0  9991
2 41836   0.0208 278.6772 0001335 226.6727 343.9982  1.00273443 35399
