OBJECT_NAME,OBJECT_ID,EPOCH,MEAN_MOTION,ECCENTRICITY,INCLINATION,RA_OF_ASC_NODE,ARG_OF_PERICENTER,MEAN_ANOMALY,EPHEMERIS_TYPE,CLASSIFICATION_TYPE,NORAD_CAT_ID,ELEMENT_SET_NO,REV_AT_EPOCH,BSTAR,MEAN_MOTION_DOT,MEAN_MOTION_DDOT
LAOSAT 1,2015-067A,2026-07-04T23:03:13.578912,1.00274186,.00025597,0.0388,196.0242,222.7201,338.5303,0,U,41034,999,3903,0,-.33E-5,0
TELSTAR 12V,2015-068A,2026-07-05T04:18:38.494944,1.00271149,.00023936,0.0148,52.9587,48.2372,231.6504,0,U,41036,999,3880,0,-.106E-5,0
ELEKTRO-L 2,2015-074A,2026-07-04T22:22:25.997376,1.00273703,.00006172,6.7363,70.3059,256.6108,277.0927,0,U,41105,999,3868,0,-.107E-5,0
COSMOS 2513,2015-075A,2026-07-05T03:57:24.804288,1.00270860,.00033368,0.0650,104.5757,337.6696,340.5244,0,U,41121,999,3872,0,-.125E-5,0
EXPRESS-AMU1,2015-082A,2026-07-05T03:44:48.513120,1.00268150,.00024667,0.0186,27.1910,86.3061,261.9692,0,U,41191,999,3844,0,0,0
GAOFEN-4,2015-083A,2026-07-05T00:39:23.118624,1.00273046,.00040727,0.4010,83.8398,115.8685,198.8758,0,U,41194,999,3870,0,-.322E-5,0
BELINTERSAT-1,2016-001A,2026-07-05T03:49:10.593696,1.00270447,.00018398,0.0120,79.5603,347.3903,324.9875,0,U,41238,999,3841,0,.12E-5,0
IRNSS-1E,2016-003A,2026-06-29T19:51:21.425184,1.00272765,.00192006,33.2608,59.5670,178.7998,89.1855,0,U,41241,999,3820,0,-.31E-5,0
EUTELSAT 9B,2016-005A,2026-07-05T05:19:40.827648,1.00272250,.00013835,0.0630,71.7978,10.7777,289.5544,0,U,41310,999,3829,0,.75E-6,0
SES-9,2016-013A,2026-07-05T00:40:08.046624,1.00270615,.00023905,0.0180,322.0565,137.2097,302.0922,0,U,41380,999,3761,0,-.332E-5,0
EUTELSAT 65 WEST A,2016-014A,2026-07-05T04:58:35.350176,1.00273653,.00023372,0.0783,305.4532,156.2704,190.9378,0,U,41382,999,3770,0,-.263E-5,0
IRNSS-1F,2016-015A,2026-07-04T22:35:46.210848,1.00276344,.00174085,5.3923,96.3789,183.8704,14.1155,0,U,41384,999,3784,0,.169E-5,0
BEIDOU-2 IGSO-6,2016-021A,2026-06-26T02:38:38.671584,1.00258926,.0057558,60.2385,37.9495,231.0163,137.2672,0,U,41434,999,3757,0,-.145E-5,0
IRNSS-1G,2016-027A,2026-07-04T16:12:50.781600,1.00278584,.00058099,5.2377,97.0713,7.0029,191.4017,0,U,41469,999,3735,0,-.323E-5,0
JCSAT-2B,2016-028A,2026-07-05T04:18:27.679392,1.00270994,.0001149,0.0183,34.9133,80.3584,26.5323,0,U,41471,999,3731,0,-.152E-5,0
THAICOM 8,2016-031A,2026-07-05T03:56:54.852000,1.00271795,.00034595,0.0567,34.3065,36.4325,350.1544,0,U,41552,999,3689,0,-.108E-5,0
INTELSAT 31 (IS-31),2016-035A,2026-07-05T03:07:25.467168,1.00273064,.00009441,0.0394,205.6145,64.2305,325.0988,0,U,41581,999,3686,0,-.138E-5,0
BEIDOU-2 G7,2016-037A,2026-07-05T07:31:21.273888,1.00267815,.00066397,1.7621,69.4518,4.9721,72.2341,0,U,41586,999,707,0,-.34E-5,0
ABS-2A (MONGOLSAT-1),2016-038A,2026-07-05T02:13:13.692576,1.00269000,.00015508,0.0165,30.2123,23.0150,337.9082,0,U,41588,999,3688,0,-.71E-6,0
EUTELSAT 117 WEST B,2016-038B,2026-07-05T04:43:45.171840,1.00271115,.00001249,0.0092,155.1834,41.2322,40.7132,0,U,41589,999,3684,0,.2E-7,0
BRISAT,2016-039A,2026-07-04T23:09:27.981216,1.00270247,.00020476,0.0152,321.9324,133.9525,324.9525,0,U,41591,999,3678,0,-.184E-5,0
ECHOSTAR 18,2016-039B,2026-07-05T01:34:22.723392,1.00271130,.00015801,0.0187,43.4998,71.8835,129.9119,0,U,41592,999,3680,0,-.269E-5,0
MUOS-5,2016-041A,2026-07-05T03:04:48.219168,1.00273011,.01987945,2.1669,301.9753,260.5987,21.6048,0,U,41622,999,3726,0,-.101E-5,0
TIANTONG-1 1,2016-048A,2026-07-05T00:38:08.238336,1.00274272,.00053695,3.8814,43.5437,52.3693,298.0362,0,U,41725,999,3644,0,-.306E-5,0
JCSAT-16,2016-050A,2026-07-04T21:24:53.877600,1.00269327,.00010601,0.0227,40.2051,75.0444,272.8357,0,U,41729,999,3624,0,0,0
USA 270,2016-052A,2026-06-25T15:01:47.554176,0.99500516,.0000668,4.2178,77.0981,157.1810,56.2495,0,U,41744,999,2821,0,-.284E-5,0
USA 271,2016-052B,2026-06-25T18:13:09.824736,0.99833204,.0001955,4.1909,77.1447,290.7679,281.9940,0,U,41745,999,2800,0,-.236E-5,0
INTELSAT 36 (IS-36),2016-053A,2026-07-05T03:53:47.650848,1.00270251,.00022151,0.0097,10.0275,335.4655,64.6192,0,U,41747,999,3613,0,-.11E-6,0
INSAT-3DR,2016-054A,2026-07-05T02:12:58.716864,1.00272315,.00102844,0.0440,89.0648,182.1354,119.1289,0,U,41752,999,3599,0,-.64E-6,0
GSAT-18,2016-060A,2026-07-05T03:55:39.971712,1.00271445,.00057043,0.0165,62.8815,13.0284,340.1419,0,U,41793,999,3570,0,-.64E-6,0
SKY MUSTER 2 (NBN1B),2016-060B,2026-07-04T23:07:50.636064,1.00272024,.00016301,0.0179,345.5402,115.6510,313.5275,0,U,41794,999,3569,0,-.231E-5,0
HIMAWARI-9,2016-064A,2026-07-05T04:21:38.504160,1.00273443,.00013356,0.0208,278.6772,226.6727,343.9982,0,U,41836,999,3539,0,-.261E-5,0
